STARLINK-2413           
1 47827U 21018AS  25255.57874828  .00010923  00000+0  75068-3 0  9991
2 47827  53.0532 321.4339 0001227  95.5624 264.5505 15.06418330249942
STARLINK-2415           
1 47828U 21018AT  25255.51421152  .00009230  00000+0  63777-3 0  9997
2 47828  53.0555 341.4829 0001444  84.4052 275.7102 15.06398458249605
STARLINK-2419           
1 47830U 21018AV  25255.52895321  .00001320  00000+0  10745-3 0  9993
2 47830  53.0547 341.4124 0001299  88.5436 271.5702 15.06406626249591
STARLINK-2420           
1 47831U 21018AW  25254.46786668  .00001572  00000+0  12440-3 0  9992
2 47831  53.0553 321.1757 0001301  79.0582 281.0553 15.06397376249846
STARLINK-2422           
1 47832U 21018AX  25254.49043147  .00004748  00000+0  33728-3 0  9994
2 47832  53.0546 336.0785 0002342  86.2479 273.8778 15.06416508249584
STARLINK-2423           
1 47833U 21018AY  25255.51145211  .00002299  00000+0  17320-3 0  9993
2 47833  53.0567 331.4952 0001283  81.3707 278.7428 15.06398353249792
STARLINK-2424           
1 47834U 21018AZ  25255.58885232 -.00000148  00000+0  89991-5 0  9992
2 47834  53.0558 331.1503 0001791 100.0949 260.0242 15.06395348249804
STARLINK-2426           
1 47836U 21018BB  25255.60728805  .00000219  00000+0  33590-4 0  9990
2 47836  53.0546 331.1526 0001341  83.1896 276.9245 15.06398967249754
STARLINK-2427           
1 47837U 21018BC  25255.55014826  .00000021  00000+0  20327-4 0  9991
2 47837  53.0540 311.3228 0001558  87.3317 272.7850 15.06391861250037
STARLINK-2429           
1 47838U 21018BD  25255.49670291  .00006298  00000+0  44127-3 0  9994
2 47838  53.0562 331.5599 0001584  90.3154 269.8017 15.06401893249733
STARLINK-2431           
1 47839U 21018BE  25255.52526220  .00002393  00000+0  17947-3 0  9993
2 47839  53.0555 301.4337 0001327 101.2438 258.8700 15.06407007250174
STARLINK-2432           
1 47840U 21018BF  25255.53539123 -.00009024  00000+0 -58742-3 0  9990
2 47840  53.0548 311.3904 0001538  85.2929 274.8236 15.06415501250022
STARLINK-2433           
1 47841U 21018BG  25255.59805927 -.00000834  00000+0 -37072-4 0  9999
2 47841  53.0544 311.1023 0001777 104.0693 256.0494 15.06394670250034
STARLINK-2435           
1 47843U 21018BJ  25255.49070939  .00007126  00000+0  49650-3 0  9990
2 47843  53.0540 336.5877 0000916  88.8913 271.2181 15.06421608249681
STARLINK-2446           
1 47844U 21018BK  25255.48932663  .00001217  00000+0  10058-3 0  9996
2 47844  53.0545 331.5902 0001552  90.2737 269.8430 15.06398890249731
STARLINK-2453           
1 47845U 21018BL  25255.50776047 -.00001412  00000+0 -75937-4 0  9999
2 47845  53.0568 331.5105 0001582  74.1512 285.9651 15.06375506249741
