[{"OBJECT_NAME":"STARLINK-2413","OBJECT_ID":"2021-018AS","EPOCH":"2025-09-12T13:53:23.851392","MEAN_MOTION":15.0641833,"ECCENTRICITY":0.00012276,"INCLINATION":53.0532,"RA_OF_ASC_NODE":321.4339,"ARG_OF_PERICENTER":95.5624,"MEAN_ANOMALY":264.5505,"EPHEMERIS_TYPE":0,"CLASSIFICATION_TYPE":"U","NORAD_CAT_ID":47827,"ELEMENT_SET_NO":999,"REV_AT_EPOCH":24994,"BSTAR":0.00075068228,"MEAN_MOTION_DOT":0.00010923,"MEAN_MOTION_DDOT":0},{"OBJECT_NAME":"STARLINK-2415","OBJECT_ID":"2021-018AT","EPOCH":"2025-09-12T12:20:27.875328","MEAN_MOTION":15.06398458,"ECCENTRICITY":0.00014441,"INCLINATION":53.0555,"RA_OF_ASC_NODE":341.4829,"ARG_OF_PERICENTER":84.4052,"MEAN_ANOMALY":275.7102,"EPHEMERIS_TYPE":0,"CLASSIFICATION_TYPE":"U","NORAD_CAT_ID":47828,"ELEMENT_SET_NO":999,"REV_AT_EPOCH":24960,"BSTAR":0.00063776731,"MEAN_MOTION_DOT":9.23e-5,"MEAN_MOTION_DDOT":0},{"OBJECT_NAME":"STARLINK-2419","OBJECT_ID":"2021-018AV","EPOCH":"2025-09-12T12:41:41.557344","MEAN_MOTION":15.06406626,"ECCENTRICITY":0.00012992,"INCLINATION":53.0547,"RA_OF_ASC_NODE":341.4124,"ARG_OF_PERICENTER":88.5436,"MEAN_ANOMALY":271.5702,"EPHEMERIS_TYPE":0,"CLASSIFICATION_TYPE":"U","NORAD_CAT_ID":47830,"ELEMENT_SET_NO":999,"REV_AT_EPOCH":24959,"BSTAR":0.0001074467,"MEAN_MOTION_DOT":1.32e-5,"MEAN_MOTION_DDOT":0},{"OBJECT_NAME":"STARLINK-2420","OBJECT_ID":"2021-018AW","EPOCH":"2025-09-11T11:13:43.681152","MEAN_MOTION":15.06397376,"ECCENTRICITY":0.00013018,"INCLINATION":53.0553,"RA_OF_ASC_NODE":321.1757,"ARG_OF_PERICENTER":79.0582,"MEAN_ANOMALY":281.0553,"EPHEMERIS_TYPE":0,"CLASSIFICATION_TYPE":"U","NORAD_CAT_ID":47831,"ELEMENT_SET_NO":999,"REV_AT_EPOCH":24984,"BSTAR":0.00012440359,"MEAN_MOTION_DOT":1.572e-5,"MEAN_MOTION_DDOT":0},{"OBJECT_NAME":"STARLINK-2422","OBJECT_ID":"2021-018AX","EPOCH":"2025-09-11T11:46:13.279008","MEAN_MOTION":15.06416508,"ECCENTRICITY":0.00023424,"INCLINATION":53.0546,"RA_OF_ASC_NODE":336.0785,"ARG_OF_PERICENTER":86.2479,"MEAN_ANOMALY":273.8778,"EPHEMERIS_TYPE":0,"CLASSIFICATION_TYPE":"U","NORAD_CAT_ID":47832,"ELEMENT_SET_NO":999,"REV_AT_EPOCH":24958,"BSTAR":0.00033727981,"MEAN_MOTION_DOT":4.748e-5,"MEAN_MOTION_DDOT":0},{"OBJECT_NAME":"STARLINK-2423","OBJECT_ID":"2021-018AY","EPOCH":"2025-09-12T12:16:29.462304","MEAN_MOTION":15.06398353,"ECCENTRICITY":0.00012838,"INCLINATION":53.0567,"RA_OF_ASC_NODE":331.4952,"ARG_OF_PERICENTER":81.3707,"MEAN_ANOMALY":278.7428,"EPHEMERIS_TYPE":0,"CLASSIFICATION_TYPE":"U","NORAD_CAT_ID":47833,"ELEMENT_SET_NO":999,"REV_AT_EPOCH":24979,"BSTAR":0.00017320179,"MEAN_MOTION_DOT":2.299e-5,"MEAN_MOTION_DDOT":0},{"OBJECT_NAME":"STARLINK-2424","OBJECT_ID":"2021-018AZ","EPOCH":"2025-09-12T14:07:56.840448","MEAN_MOTION":15.06395348,"ECCENTRICITY":0.00017912,"INCLINATION":53.0558,"RA_OF_ASC_NODE":331.1503,"ARG_OF_PERICENTER":100.0949,"MEAN_ANOMALY":260.0242,"EPHEMERIS_TYPE":0,"CLASSIFICATION_TYPE":"U","NORAD_CAT_ID":47834,"ELEMENT_SET_NO":999,"REV_AT_EPOCH":24980,"BSTAR":8.999135e-6,"MEAN_MOTION_DOT":-1.48e-6,"MEAN_MOTION_DDOT":0},{"OBJECT_NAME":"STARLINK-2426","OBJECT_ID":"2021-018BB","EPOCH":"2025-09-12T14:34:29.687520","MEAN_MOTION":15.06398967,"ECCENTRICITY":0.00013414,"INCLINATION":53.0546,"RA_OF_ASC_NODE":331.1526,"ARG_OF_PERICENTER":83.1896,"MEAN_ANOMALY":276.9245,"EPHEMERIS_TYPE":0,"CLASSIFICATION_TYPE":"U","NORAD_CAT_ID":47836,"ELEMENT_SET_NO":999,"REV_AT_EPOCH":24975,"BSTAR":3.359019e-5,"MEAN_MOTION_DOT":2.19e-6,"MEAN_MOTION_DDOT":0},{"OBJECT_NAME":"STARLINK-2427","OBJECT_ID":"2021-018BC","EPOCH":"2025-09-12T13:12:12.809664","MEAN_MOTION":15.06391861,"ECCENTRICITY":0.00015582,"INCLINATION":53.054,"RA_OF_ASC_NODE":311.3228,"ARG_OF_PERICENTER":87.3317,"MEAN_ANOMALY":272.785,"EPHEMERIS_TYPE":0,"CLASSIFICATION_TYPE":"U","NORAD_CAT_ID":47837,"ELEMENT_SET_NO":999,"REV_AT_EPOCH":25003,"BSTAR":2.0327105e-5,"MEAN_MOTION_DOT":2.1e-7,"MEAN_MOTION_DDOT":0},{"OBJECT_NAME":"STARLINK-2429","OBJECT_ID":"2021-018BD","EPOCH":"2025-09-12T11:55:15.131424","MEAN_MOTION":15.06401893,"ECCENTRICITY":0.00015849,"INCLINATION":53.0562,"RA_OF_ASC_NODE":331.5599,"ARG_OF_PERICENTER":90.3154,"MEAN_ANOMALY":269.8017,"EPHEMERIS_TYPE":0,"CLASSIFICATION_TYPE":"U","NORAD_CAT_ID":47838,"ELEMENT_SET_NO":999,"REV_AT_EPOCH":24973,"BSTAR":0.00044127265,"MEAN_MOTION_DOT":6.298e-5,"MEAN_MOTION_DDOT":0},{"OBJECT_NAME":"STARLINK-2431","OBJECT_ID":"2021-018BE","EPOCH":"2025-09-12T12:36:22.654080","MEAN_MOTION":15.06407007,"ECCENTRICITY":0.00013274,"INCLINATION":53.0555,"RA_OF_ASC_NODE":301.4337,"ARG_OF_PERICENTER":101.2438,"MEAN_ANOMALY":258.87,"EPHEMERIS_TYPE":0,"CLASSIFICATION_TYPE":"U","NORAD_CAT_ID":47839,"ELEMENT_SET_NO":999,"REV_AT_EPOCH":25017,"BSTAR":0.000179471,"MEAN_MOTION_DOT":2.393e-5,"MEAN_MOTION_DDOT":0},{"OBJECT_NAME":"STARLINK-2432","OBJECT_ID":"2021-018BF","EPOCH":"2025-09-12T12:50:57.802272","MEAN_MOTION":15.06415501,"ECCENTRICITY":0.00015384,"INCLINATION":53.0548,"RA_OF_ASC_NODE":311.3904,"ARG_OF_PERICENTER":85.2929,"MEAN_ANOMALY":274.8236,"EPHEMERIS_TYPE":0,"CLASSIFICATION_TYPE":"U","NORAD_CAT_ID":47840,"ELEMENT_SET_NO":999,"REV_AT_EPOCH":25002,"BSTAR":-0.00058741789,"MEAN_MOTION_DOT":-9.024e-5,"MEAN_MOTION_DDOT":0},{"OBJECT_NAME":"STARLINK-2433","OBJECT_ID":"2021-018BG","EPOCH":"2025-09-12T14:21:12.320928","MEAN_MOTION":15.0639467,"ECCENTRICITY":0.00017778,"INCLINATION":53.0544,"RA_OF_ASC_NODE":311.1023,"ARG_OF_PERICENTER":104.0693,"MEAN_ANOMALY":256.0494,"EPHEMERIS_TYPE":0,"CLASSIFICATION_TYPE":"U","NORAD_CAT_ID":47841,"ELEMENT_SET_NO":999,"REV_AT_EPOCH":25003,"BSTAR":-3.7071807e-5,"MEAN_MOTION_DOT":-8.34e-6,"MEAN_MOTION_DDOT":0},{"OBJECT_NAME":"STARLINK-2435","OBJECT_ID":"2021-018BJ","EPOCH":"2025-09-12T11:46:37.291296","MEAN_MOTION":15.06421608,"ECCENTRICITY":9.169e-5,"INCLINATION":53.054,"RA_OF_ASC_NODE":336.5877,"ARG_OF_PERICENTER":88.8913,"MEAN_ANOMALY":271.2181,"EPHEMERIS_TYPE":0,"CLASSIFICATION_TYPE":"U","NORAD_CAT_ID":47843,"ELEMENT_SET_NO":999,"REV_AT_EPOCH":24968,"BSTAR":0.00049650195,"MEAN_MOTION_DOT":7.126e-5,"MEAN_MOTION_DDOT":0},{"OBJECT_NAME":"STARLINK-2446","OBJECT_ID":"2021-018BK","EPOCH":"2025-09-12T11:44:37.820832","MEAN_MOTION":15.0639889,"ECCENTRICITY":0.00015524,"INCLINATION":53.0545,"RA_OF_ASC_NODE":331.5902,"ARG_OF_PERICENTER":90.2737,"MEAN_ANOMALY":269.843,"EPHEMERIS_TYPE":0,"CLASSIFICATION_TYPE":"U","NORAD_CAT_ID":47844,"ELEMENT_SET_NO":999,"REV_AT_EPOCH":24973,"BSTAR":0.00010057592,"MEAN_MOTION_DOT":1.217e-5,"MEAN_MOTION_DDOT":0},{"OBJECT_NAME":"STARLINK-2453","OBJECT_ID":"2021-018BL","EPOCH":"2025-09-12T12:11:10.504608","MEAN_MOTION":15.06375506,"ECCENTRICITY":0.0001582,"INCLINATION":53.0568,"RA_OF_ASC_NODE":331.5105,"ARG_OF_PERICENTER":74.1512,"MEAN_ANOMALY":285.9651,"EPHEMERIS_TYPE":0,"CLASSIFICATION_TYPE":"U","NORAD_CAT_ID":47845,"ELEMENT_SET_NO":999,"REV_AT_EPOCH":24974,"BSTAR":-7.5936938e-5,"MEAN_MOTION_DOT":-1.412e-5,"MEAN_MOTION_DDOT":0}]
